0 COSMOS 397 DEB
1 05012U 71015F   13282.71224111  .00011484  00000-0  27860-2 0  8506
2 05012 065.7521 207.2995 0580654 000.7233 359.4541 13.83157321 49865
0 COSMOS 397 DEB
1 05012U 71015F   13283.57990574  .00021466  00000-0  51657-2 0  8528
2 05012 065.7517 205.1049 0580134 000.3061 359.8714 13.83164842 49980
0 COSMOS 397 DEB
1 05012U 71015F   13284.08601153  .00013292  00000-0  32165-2 0  8517
2 05012 065.7521 203.8242 0580673 000.0684 000.0361 13.83190056 50050
0 COSMOS 397 DEB
1 05012U 71015F   13285.38745077  .00010296  00000-0  24966-2 0  8527
2 05012 065.7523 200.5319 0580666 359.4338 000.6001 13.83220841 50233
0 COSMOS 397 DEB
1 05012U 71015F   13286.61656217  .00010474  00000-0  25375-2 0  8535
2 05012 065.7526 197.4224 0580673 358.8457 001.1228 13.83245053 50406
0 COSMOS 397 DEB
1 05012U 71015F   13287.84565202  .00012431  00000-0  30035-2 0  8549
2 05012 065.7529 194.3128 0580674 358.2489 001.6533 13.83271836 50578
0 COSMOS 397 DEB
1 05012U 71015F   13289.07471295  .00012754  00000-0  30784-2 0  8554
2 05012 065.7528 191.2029 0580638 357.6559 002.1803 13.83306522 50740
0 COSMOS 397 DEB
1 05012U 71015F   13290.59293085  .00012262  00000-0  29587-2 0  8566
2 05012 065.7527 187.3617 0580618 356.9318 002.8240 13.83338466 50958
0 COSMOS 397 DEB
1 05012U 71015F   13290.59293949  .00012177  00000-0  29126-2 0  8570
2 05012 065.7517 187.3620 0580409 356.9165 002.8843 13.83341449 50953
0 COSMOS 397 DEB
1 05012U 71015F   13291.74964325  .00009705  00000-0  23466-2 0  8575
2 05012 065.7523 184.4348 0580614 356.3790 003.3153 13.83363892 51116
0 COSMOS 397 DEB
1 05012U 71015F   13292.76174895  .00009719  00000-0  23483-2 0  8588
2 05012 065.7518 181.8736 0580659 355.8905 003.7496 13.83383653 51259
0 COSMOS 397 DEB
1 05012U 71015F   13293.77384102  .00009822  00000-0  23715-2 0  8598
2 05012 065.7514 179.3122 0580685 355.3999 004.1857 13.83400060 51396
0 COSMOS 397 DEB
1 05012U 71015F   13294.78592005  .00010597  00000-0  25547-2 0  8601
2 05012 065.7511 176.7506 0580698 354.9089 004.6223 13.83419497 51531
0 COSMOS 397 DEB
1 05012U 71015F   13295.79798580  .00009619  00000-0  23206-2 0  8613
2 05012 065.7509 174.1891 0580705 354.4231 005.0542 13.83435959 51675
